IRIDIUM 171             
1 43929U 19002H   24146.49855506  .00000260  00000+0  85612-4 0  9991
2 43929  86.3946 308.3572 0002226  96.5334 263.6115 14.34215163281077
IRIDIUM 170             
1 43930U 19002J   24146.49081337  .00001977  00000+0  30952-3 0  9998
2 43930  86.6069 308.1834 0002415  88.7806 271.3688 14.72257433288519
IRIDIUM 167             
1 43931U 19002K   24146.49220927  .00000499  00000+0  17105-3 0  9992
2 43931  86.3938 308.1524 0002113  94.0471 266.0967 14.34217756281078
IRIDIUM 181             
1 56726U 23068S   24146.57926332  .00000635  00000+0  18193-3 0  9997
2 56726  86.8649   0.7481 0002081  90.5287 269.6153 14.43579632 53870
IRIDIUM 177             
1 56727U 23068T   24146.57861570  .00001017  00000+0  13045-3 0  9996
2 56727  86.1955 326.1006 0002306  98.3783 261.7699 14.80203298 55030
IRIDIUM 174             
1 56728U 23068U   24146.57318131  .00001107  00000+0  14233-3 0  9997
2 56728  86.1961 326.2051 0002036  88.5917 271.5537 14.80202327 55031
IRIDIUM 178             
1 56729U 23068V   24146.56776411  .00002394  00000+0  31144-3 0  9995
2 56729  86.5775 342.6002 0002508  73.6489 286.5008 14.80247631 55036
IRIDIUM 179             
1 56730U 23068W   24146.56236029  .00002322  00000+0  30200-3 0  9996
2 56730  86.6789 346.4514 0002479  74.8821 285.2674 14.80255509 55032
